{
  "type": "FeatureCollection",
  "features": [
    {
      "type": "Feature",
      "properties": {
        "norad_id": 66502,
        "name": "STARLINK-35922",
        "group": "last-30-days",
        "lat": -28.213366644635403,
        "lon": 96.71151852450097,
        "alt_km": 416.97025906805356,
        "timestamp": "2025-12-11T13:55:00.913523+00:00",
        "meta_object_name": "STARLINK-35922",
        "meta_object_id": "2025-263T",
        "meta_epoch": "2025-12-11T06:00:02.999808",
        "meta_mean_motion": 15.50607268,
        "meta_eccentricity": 0.00014901,
        "meta_inclination": 43.0006,
        "meta_ra_of_asc_node": 133.7914,
        "meta_arg_of_pericenter": 267.1558,
        "meta_mean_anomaly": 5.6017,
        "meta_ephemeris_type": 0,
        "meta_classification_type": "U",
        "meta_norad_cat_id": 66502,
        "meta_element_set_no": 999,
        "meta_rev_at_epoch": 539,
        "meta_bstar": -0.0011615988,
        "meta_mean_motion_dot": -0.00067967,
        "meta_mean_motion_ddot": 0,
        "tle_line1": "1 66502U 25263T   25345.25003472 -.00067967  00000+0 -11616-2 0  9992",
        "tle_line2": "2 66502  43.0006 133.7914 0001490 267.1558   5.6017 15.50607268  5396"
      },
      "geometry": {
        "type": "Point",
        "coordinates": [
          96.71151852450097,
          -28.213366644635403
        ]
      }
    },
    {
      "type": "Feature",
      "properties": {
        "norad_id": 66503,
        "name": "STARLINK-35917",
        "group": "last-30-days",
        "lat": -26.043090025617783,
        "lon": 100.22480023144561,
        "alt_km": 417.09424301652416,
        "timestamp": "2025-12-11T13:55:00.913534+00:00",
        "meta_object_name": "STARLINK-35917",
        "meta_object_id": "2025-263U",
        "meta_epoch": "2025-12-11T06:00:02.999808",
        "meta_mean_motion": 15.50696925,
        "meta_eccentricity": 0.00018381,
        "meta_inclination": 43.0004,
        "meta_ra_of_asc_node": 133.7821,
        "meta_arg_of_pericenter": 261.5528,
        "meta_mean_anomaly": 15.0229,
        "meta_ephemeris_type": 0,
        "meta_classification_type": "U",
        "meta_norad_cat_id": 66503,
        "meta_element_set_no": 999,
        "meta_rev_at_epoch": 539,
        "meta_bstar": -0.0061073809,
        "meta_mean_motion_dot": -0.0034478,
        "meta_mean_motion_ddot": 0,
        "tle_line1": "1 66503U 25263U   25345.25003472 -.00344780  00000+0 -61074-2 0  9997",
        "tle_line2": "2 66503  43.0004 133.7821 0001838 261.5528  15.0229 15.50696925  5391"
      },
      "geometry": {
        "type": "Point",
        "coordinates": [
          100.22480023144561,
          -26.043090025617783
        ]
      }
    },
    {
      "type": "Feature",
      "properties": {
        "norad_id": 66504,
        "name": "STARLINK-35916",
        "group": "last-30-days",
        "lat": 42.620299304616886,
        "lon": -145.75284187315964,
        "alt_km": 437.95979597589303,
        "timestamp": "2025-12-11T13:55:00.913544+00:00",
        "meta_object_name": "STARLINK-35916",
        "meta_object_id": "2025-263V",
        "meta_epoch": "2025-12-11T02:39:58.353120",
        "meta_mean_motion": 15.40717379,
        "meta_eccentricity": 0.00015168,
        "meta_inclination": 42.9999,
        "meta_ra_of_asc_node": 136.0186,
        "meta_arg_of_pericenter": 285.0146,
        "meta_mean_anomaly": 75.0543,
        "meta_ephemeris_type": 0,
        "meta_classification_type": "U",
        "meta_norad_cat_id": 66504,
        "meta_element_set_no": 999,
        "meta_rev_at_epoch": 529,
        "meta_bstar": 0.0017331304,
        "meta_mean_motion_dot": 0.0007283,
        "meta_mean_motion_ddot": 0,
        "tle_line1": "1 66504U 25263V   25345.11109205  .00072830  00000+0  17331-2 0  9993",
        "tle_line2": "2 66504  42.9999 136.0186 0001516 285.0146  75.0543 15.40717379  5293"
      },
      "geometry": {
        "type": "Point",
        "coordinates": [
          -145.75284187315964,
          42.620299304616886
        ]
      }
    },
    {
      "type": "Feature",
      "properties": {
        "norad_id": 66505,
        "name": "STARLINK-34766",
        "group": "last-30-days",
        "lat": -30.297762893073404,
        "lon": 93.04104848831103,
        "alt_km": 417.09993703154396,
        "timestamp": "2025-12-11T13:55:00.913554+00:00",
        "meta_object_name": "STARLINK-34766",
        "meta_object_id": "2025-263W",
        "meta_epoch": "2025-12-11T06:00:02.999808",
        "meta_mean_motion": 15.50610792,
        "meta_eccentricity": 0.00016376,
        "meta_inclination": 43.0007,
        "meta_ra_of_asc_node": 133.8013,
        "meta_arg_of_pericenter": 259.3183,
        "meta_mean_anomaly": 9.6036,
        "meta_ephemeris_type": 0,
        "meta_classification_type": "U",
        "meta_norad_cat_id": 66505,
        "meta_element_set_no": 999,
        "meta_rev_at_epoch": 539,
        "meta_bstar": -0.0012737849,
        "meta_mean_motion_dot": -0.00074447,
        "meta_mean_motion_ddot": 0,
        "tle_line1": "1 66505U 25263W   25345.25003472 -.00074447  00000+0 -12738-2 0  9992",
        "tle_line2": "2 66505  43.0007 133.8013 0001637 259.3183   9.6036 15.50610792  5392"
      },
      "geometry": {
        "type": "Point",
        "coordinates": [
          93.04104848831103,
          -30.297762893073404
        ]
      }
    },
    {
      "type": "Feature",
      "properties": {
        "norad_id": 66506,
        "name": "STARLINK-34765",
        "group": "last-30-days",
        "lat": -29.262724704394145,
        "lon": 94.90523998663755,
        "alt_km": 417.0344714657449,
        "timestamp": "2025-12-11T13:55:00.913565+00:00",
        "meta_object_name": "STARLINK-34765",
        "meta_object_id": "2025-263X",
        "meta_epoch": "2025-12-11T06:00:02.999808",
        "meta_mean_motion": 15.50631422,
        "meta_eccentricity": 0.00015791,
        "meta_inclination": 43.0007,
        "meta_ra_of_asc_node": 133.7969,
        "meta_arg_of_pericenter": 262.7771,
        "meta_mean_anomaly": 8.0596,
        "meta_ephemeris_type": 0,
        "meta_classification_type": "U",
        "meta_norad_cat_id": 66506,
        "meta_element_set_no": 999,
        "meta_rev_at_epoch": 539,
        "meta_bstar": -0.0018168911,
        "meta_mean_motion_dot": -0.00105702,
        "meta_mean_motion_ddot": 0,
        "tle_line1": "1 66506U 25263X   25345.25003472 -.00105702  00000+0 -18169-2 0  9996",
        "tle_line2": "2 66506  43.0007 133.7969 0001579 262.7771   8.0596 15.50631422  5395"
      },
      "geometry": {
        "type": "Point",
        "coordinates": [
          94.90523998663755,
          -29.262724704394145
        ]
      }
    },
    {
      "type": "Feature",
      "properties": {
        "norad_id": 66507,
        "name": "STARLINK-34767",
        "group": "last-30-days",
        "lat": -28.906965247135656,
        "lon": 95.52517296927661,
        "alt_km": 425.01282226733565,
        "timestamp": "2025-12-11T13:55:00.913576+00:00",
        "meta_object_name": "STARLINK-34767",
        "meta_object_id": "2025-263Y",
        "meta_epoch": "2025-12-11T06:00:02.999808",
        "meta_mean_motion": 15.49262822,
        "meta_eccentricity": 0.00016569,
        "meta_inclination": 43.0006,
        "meta_ra_of_asc_node": 133.7877,
        "meta_arg_of_pericenter": 263.9662,
        "meta_mean_anomaly": 10.0134,
        "meta_ephemeris_type": 0,
        "meta_classification_type": "U",
        "meta_norad_cat_id": 66507,
        "meta_element_set_no": 999,
        "meta_rev_at_epoch": 539,
        "meta_bstar": -0.04202207,
        "meta_mean_motion_dot": -0.02089881,
        "meta_mean_motion_ddot": 0,
        "tle_line1": "1 66507U 25263Y   25345.25003472 -.02089881  00000+0 -42022-1 0  9992",
        "tle_line2": "2 66507  43.0006 133.7877 0001656 263.9662  10.0134 15.49262822  5394"
      },
      "geometry": {
        "type": "Point",
        "coordinates": [
          95.52517296927661,
          -28.906965247135656
        ]
      }
    },
    {
      "type": "Feature",
      "properties": {
        "norad_id": 66508,
        "name": "STARLINK-35608",
        "group": "last-30-days",
        "lat": -23.765855343519902,
        "lon": 103.64371349838828,
        "alt_km": 416.7774558422816,
        "timestamp": "2025-12-11T13:55:00.913586+00:00",
        "meta_object_name": "STARLINK-35608",
        "meta_object_id": "2025-263Z",
        "meta_epoch": "2025-12-11T06:00:02.999808",
        "meta_mean_motion": 15.50612902,
        "meta_eccentricity": 0.00015711,
        "meta_inclination": 43.0006,
        "meta_ra_of_asc_node": 133.7725,
        "meta_arg_of_pericenter": 263.7116,
        "meta_mean_anomaly": 16.7146,
        "meta_ephemeris_type": 0,
        "meta_classification_type": "U",
        "meta_norad_cat_id": 66508,
        "meta_element_set_no": 999,
        "meta_rev_at_epoch": 539,
        "meta_bstar": -0.0013511903,
        "meta_mean_motion_dot": -0.00078911,
        "meta_mean_motion_ddot": 0,
        "tle_line1": "1 66508U 25263Z   25345.25003472 -.00078911  00000+0 -13512-2 0  9996",
        "tle_line2": "2 66508  43.0006 133.7725 0001571 263.7116  16.7146 15.50612902  5391"
      },
      "geometry": {
        "type": "Point",
        "coordinates": [
          103.64371349838828,
          -23.765855343519902
        ]
      }
    }
  ]
}